STARLINK-36566          
1 67551U 26014V   26043.58335648 -.00037740  00000+0 -25302-3 0  9991
2 67551  97.2858 287.2728 0001358  89.1805 170.6607 15.75212985  4656
STARLINK-36567          
1 67552U 26014W   26043.60952228  .00171468  00000+0  11246-2 0  9999
2 67552  97.2858 287.2739 0001552 110.5632 249.5800 15.75251135  4619
STARLINK-36569          
1 67553U 26014X   26043.64854312 -.00472669  00000+0 -26659-2 0  9992
2 67553  97.2866 287.3710 0001329 163.4199 196.7113 15.80293179  4627
STARLINK-36395          
1 67554U 26014Y   26043.60387533  .00205590  00000+0  13415-2 0  9996
2 67554  97.2862 287.2823 0001620  92.9732 267.1718 15.75271998  4613
STARLINK-36559          
1 67555U 26014Z   26043.60528805  .00244049  00000+0  15847-2 0  9999
2 67555  97.2863 287.2803 0001569  96.4655 263.6789 15.75278008  4616
MR-1                    
1 67556U 26015A   26043.63652549  .00000022  00000+0  14763-4 0  9996
2 67556  88.9973 281.2095 0005130  83.3492 276.8244 13.52685979  2875
MR-2                    
1 67557U 26015B   26043.63691124  .00000042  00000+0  44426-4 0  9990
2 67557  88.9973 281.2097 0005192  82.3838 277.7904 13.52661130  2875
ELECTRON R/B            
1 67558U 26015C   26043.59446449  .02572268 -10715-5  15920-2 0  9996
2 67558  88.9901 280.5892 0421340 192.0305 167.0648 15.37831465  3183
ELECTRON KICK STAGE R/B 
1 67559U 26015D   26043.63499893  .00060423  13310-6  10206-2 0  9992
2 67559  89.0511 280.8653 0529422 261.1584  92.9363 14.67961681  3117
STARLINK-36426          
1 67560U 26014AA  26043.64737067  .00119182  00000+0  61336-3 0  9995
2 67560  97.2853 287.3775 0000813  44.0182 316.1150 15.80856754  4628
STARLINK-36621          
1 67561U 26016A   26043.58335648  .00254688  00000+0  16655-2 0  9994
2 67561  97.2839 102.7511 0001229 110.6273 326.5770 15.75085061  4019
STARLINK-36398          
1 67562U 26016B   26043.57716882  .00165527  00000+0  10879-2 0  9992
2 67562  97.2839 102.7244 0001010  78.4955 281.6424 15.75219946  2846
