CCSDS_OMM_VERS = 2.0
CREATION_DATE  = 
ORIGINATOR     = 

OBJECT_NAME    = STARLINK-36566
OBJECT_ID      = 2026-014V
CENTER_NAME    = EARTH
REF_FRAME      = TEME
TIME_SYSTEM    = UTC
MEAN_ELEMENT_THEORY = SGP/SGP4

EPOCH          = 2026-02-12T14:00:01.999872
MEAN_MOTION    = 15.75212985
ECCENTRICITY   = .00013581
INCLINATION    = 97.2858
RA_OF_ASC_NODE = 287.2728
ARG_OF_PERICENTER = 89.1805
MEAN_ANOMALY   = 170.6607

EPHEMERIS_TYPE = 0
CLASSIFICATION_TYPE = U
NORAD_CAT_ID   = 67551
ELEMENT_SET_NO = 999
REV_AT_EPOCH   = 465
BSTAR          = -.25301787E-3
MEAN_MOTION_DOT = -.3774E-3
MEAN_MOTION_DDOT = 0

CCSDS_OMM_VERS = 2.0
CREATION_DATE  = 
ORIGINATOR     = 

OBJECT_NAME    = STARLINK-36567
OBJECT_ID      = 2026-014W
CENTER_NAME    = EARTH
REF_FRAME      = TEME
TIME_SYSTEM    = UTC
MEAN_ELEMENT_THEORY = SGP/SGP4

EPOCH          = 2026-02-12T14:37:42.724992
MEAN_MOTION    = 15.75251135
ECCENTRICITY   = .00015521
INCLINATION    = 97.2858
RA_OF_ASC_NODE = 287.2739
ARG_OF_PERICENTER = 110.5632
MEAN_ANOMALY   = 249.5800

EPHEMERIS_TYPE = 0
CLASSIFICATION_TYPE = U
NORAD_CAT_ID   = 67552
ELEMENT_SET_NO = 999
REV_AT_EPOCH   = 461
BSTAR          = .1124552E-2
MEAN_MOTION_DOT = .171468E-2
MEAN_MOTION_DDOT = 0

CCSDS_OMM_VERS = 2.0
CREATION_DATE  = 
ORIGINATOR     = 

OBJECT_NAME    = STARLINK-36569
OBJECT_ID      = 2026-014X
CENTER_NAME    = EARTH
REF_FRAME      = TEME
TIME_SYSTEM    = UTC
MEAN_ELEMENT_THEORY = SGP/SGP4

EPOCH          = 2026-02-12T15:33:54.125568
MEAN_MOTION    = 15.80293179
ECCENTRICITY   = .00013293
INCLINATION    = 97.2866
RA_OF_ASC_NODE = 287.3710
ARG_OF_PERICENTER = 163.4199
MEAN_ANOMALY   = 196.7113

EPHEMERIS_TYPE = 0
CLASSIFICATION_TYPE = U
NORAD_CAT_ID   = 67553
ELEMENT_SET_NO = 999
REV_AT_EPOCH   = 462
BSTAR          = -.26658633E-2
MEAN_MOTION_DOT = -.472669E-2
MEAN_MOTION_DDOT = 0

CCSDS_OMM_VERS = 2.0
CREATION_DATE  = 
ORIGINATOR     = 

OBJECT_NAME    = STARLINK-36395
OBJECT_ID      = 2026-014Y
CENTER_NAME    = EARTH
REF_FRAME      = TEME
TIME_SYSTEM    = UTC
MEAN_ELEMENT_THEORY = SGP/SGP4

EPOCH          = 2026-02-12T14:29:34.828512
MEAN_MOTION    = 15.75271998
ECCENTRICITY   = .00016202
INCLINATION    = 97.2862
RA_OF_ASC_NODE = 287.2823
ARG_OF_PERICENTER = 92.9732
MEAN_ANOMALY   = 267.1718

EPHEMERIS_TYPE = 0
CLASSIFICATION_TYPE = U
NORAD_CAT_ID   = 67554
ELEMENT_SET_NO = 999
REV_AT_EPOCH   = 461
BSTAR          = .13415435E-2
MEAN_MOTION_DOT = .20559E-2
MEAN_MOTION_DDOT = 0

CCSDS_OMM_VERS = 2.0
CREATION_DATE  = 
ORIGINATOR     = 

OBJECT_NAME    = STARLINK-36559
OBJECT_ID      = 2026-014Z
CENTER_NAME    = EARTH
REF_FRAME      = TEME
TIME_SYSTEM    = UTC
MEAN_ELEMENT_THEORY = SGP/SGP4

EPOCH          = 2026-02-12T14:31:36.887520
MEAN_MOTION    = 15.75278008
ECCENTRICITY   = .00015699
INCLINATION    = 97.2863
RA_OF_ASC_NODE = 287.2803
ARG_OF_PERICENTER = 96.4655
MEAN_ANOMALY   = 263.6789

EPHEMERIS_TYPE = 0
CLASSIFICATION_TYPE = U
NORAD_CAT_ID   = 67555
ELEMENT_SET_NO = 999
REV_AT_EPOCH   = 461
BSTAR          = .15847219E-2
MEAN_MOTION_DOT = .244049E-2
MEAN_MOTION_DDOT = 0

CCSDS_OMM_VERS = 2.0
CREATION_DATE  = 
ORIGINATOR     = 

OBJECT_NAME    = MR-1
OBJECT_ID      = 2026-015A
CENTER_NAME    = EARTH
REF_FRAME      = TEME
TIME_SYSTEM    = UTC
MEAN_ELEMENT_THEORY = SGP/SGP4

EPOCH          = 2026-02-12T15:16:35.802336
MEAN_MOTION    = 13.52685979
ECCENTRICITY   = .00051307
INCLINATION    = 88.9973
RA_OF_ASC_NODE = 281.2095
ARG_OF_PERICENTER = 83.3492
MEAN_ANOMALY   = 276.8244

EPHEMERIS_TYPE = 0
CLASSIFICATION_TYPE = U
NORAD_CAT_ID   = 67556
ELEMENT_SET_NO = 999
REV_AT_EPOCH   = 287
BSTAR          = .14762821E-4
MEAN_MOTION_DOT = .22E-6
MEAN_MOTION_DDOT = 0

CCSDS_OMM_VERS = 2.0
CREATION_DATE  = 
ORIGINATOR     = 

OBJECT_NAME    = MR-2
OBJECT_ID      = 2026-015B
CENTER_NAME    = EARTH
REF_FRAME      = TEME
TIME_SYSTEM    = UTC
MEAN_ELEMENT_THEORY = SGP/SGP4

EPOCH          = 2026-02-12T15:17:09.131136
MEAN_MOTION    = 13.52661130
ECCENTRICITY   = .00051926
INCLINATION    = 88.9973
RA_OF_ASC_NODE = 281.2097
ARG_OF_PERICENTER = 82.3838
MEAN_ANOMALY   = 277.7904

EPHEMERIS_TYPE = 0
CLASSIFICATION_TYPE = U
NORAD_CAT_ID   = 67557
ELEMENT_SET_NO = 999
REV_AT_EPOCH   = 287
BSTAR          = .44426151E-4
MEAN_MOTION_DOT = .42E-6
MEAN_MOTION_DDOT = 0

CCSDS_OMM_VERS = 2.0
CREATION_DATE  = 
ORIGINATOR     = 

OBJECT_NAME    = ELECTRON R/B
OBJECT_ID      = 2026-015C
CENTER_NAME    = EARTH
REF_FRAME      = TEME
TIME_SYSTEM    = UTC
MEAN_ELEMENT_THEORY = SGP/SGP4

EPOCH          = 2026-02-12T14:16:01.731936
MEAN_MOTION    = 15.37831465
ECCENTRICITY   = .04213402
INCLINATION    = 88.9901
RA_OF_ASC_NODE = 280.5892
ARG_OF_PERICENTER = 192.0305
MEAN_ANOMALY   = 167.0648

EPHEMERIS_TYPE = 0
CLASSIFICATION_TYPE = U
NORAD_CAT_ID   = 67558
ELEMENT_SET_NO = 999
REV_AT_EPOCH   = 318
BSTAR          = .1591984E-2
MEAN_MOTION_DOT = .2572268E-1
MEAN_MOTION_DDOT = -.1071506E-5

CCSDS_OMM_VERS = 2.0
CREATION_DATE  = 
ORIGINATOR     = 

OBJECT_NAME    = ELECTRON KICK STAGE R/B
OBJECT_ID      = 2026-015D
CENTER_NAME    = EARTH
REF_FRAME      = TEME
TIME_SYSTEM    = UTC
MEAN_ELEMENT_THEORY = SGP/SGP4

EPOCH          = 2026-02-12T15:14:23.907552
MEAN_MOTION    = 14.67961681
ECCENTRICITY   = .05294222
INCLINATION    = 89.0511
RA_OF_ASC_NODE = 280.8653
ARG_OF_PERICENTER = 261.1584
MEAN_ANOMALY   = 92.9363

EPHEMERIS_TYPE = 0
CLASSIFICATION_TYPE = U
NORAD_CAT_ID   = 67559
ELEMENT_SET_NO = 999
REV_AT_EPOCH   = 311
BSTAR          = .10205702E-2
MEAN_MOTION_DOT = .60423E-3
MEAN_MOTION_DDOT = .133104E-6

CCSDS_OMM_VERS = 2.0
CREATION_DATE  = 
ORIGINATOR     = 

OBJECT_NAME    = STARLINK-36426
OBJECT_ID      = 2026-014AA
CENTER_NAME    = EARTH
REF_FRAME      = TEME
TIME_SYSTEM    = UTC
MEAN_ELEMENT_THEORY = SGP/SGP4

EPOCH          = 2026-02-12T15:32:12.825888
MEAN_MOTION    = 15.80856754
ECCENTRICITY   = .00008134
INCLINATION    = 97.2853
RA_OF_ASC_NODE = 287.3775
ARG_OF_PERICENTER = 44.0182
MEAN_ANOMALY   = 316.1150

EPHEMERIS_TYPE = 0
CLASSIFICATION_TYPE = U
NORAD_CAT_ID   = 67560
ELEMENT_SET_NO = 999
REV_AT_EPOCH   = 462
BSTAR          = .61335678E-3
MEAN_MOTION_DOT = .119182E-2
MEAN_MOTION_DDOT = 0

CCSDS_OMM_VERS = 2.0
CREATION_DATE  = 
ORIGINATOR     = 

OBJECT_NAME    = STARLINK-36621
OBJECT_ID      = 2026-016A
CENTER_NAME    = EARTH
REF_FRAME      = TEME
TIME_SYSTEM    = UTC
MEAN_ELEMENT_THEORY = SGP/SGP4

EPOCH          = 2026-02-12T14:00:01.999872
MEAN_MOTION    = 15.75085061
ECCENTRICITY   = .00012296
INCLINATION    = 97.2839
RA_OF_ASC_NODE = 102.7511
ARG_OF_PERICENTER = 110.6273
MEAN_ANOMALY   = 326.5770

EPHEMERIS_TYPE = 0
CLASSIFICATION_TYPE = U
NORAD_CAT_ID   = 67561
ELEMENT_SET_NO = 999
REV_AT_EPOCH   = 401
BSTAR          = .16655031E-2
MEAN_MOTION_DOT = .254688E-2
MEAN_MOTION_DDOT = 0

CCSDS_OMM_VERS = 2.0
CREATION_DATE  = 
ORIGINATOR     = 

OBJECT_NAME    = STARLINK-36398
OBJECT_ID      = 2026-016B
CENTER_NAME    = EARTH
REF_FRAME      = TEME
TIME_SYSTEM    = UTC
MEAN_ELEMENT_THEORY = SGP/SGP4

EPOCH          = 2026-02-12T13:51:07.386048
MEAN_MOTION    = 15.75219946
ECCENTRICITY   = .00010108
INCLINATION    = 97.2839
RA_OF_ASC_NODE = 102.7244
ARG_OF_PERICENTER = 78.4955
MEAN_ANOMALY   = 281.6424

EPHEMERIS_TYPE = 0
CLASSIFICATION_TYPE = U
NORAD_CAT_ID   = 67562
ELEMENT_SET_NO = 999
REV_AT_EPOCH   = 284
BSTAR          = .10878561E-2
MEAN_MOTION_DOT = .165527E-2
MEAN_MOTION_DDOT = 0

